From horizons@ssd.jpl.nasa.gov Mon Jun 13 10:11:47 2022
Date: Mon, 13 Jun 2022 01:10:55 -0700 (PDT)
From: Horizons Ephemeris System <horizons@ssd.jpl.nasa.gov>
Subject: [Horizons] SMALL BODY #C(500@399)_T(3548 Eurybates (1973 SO)) (1/1)

 Automated mail xmit by MAIL_REQUEST, PID= 25631 Mon Jun 13 01:10:55 2022
++++++++++++++++++++++++++++++++ (part 1 of 1)  +++++++++++++++++++++++++++++++
*******************************************************************************
JPL/HORIZONS              3548 Eurybates (1973 SO)         2022-Jun-13 01:10:55
Rec #:    3548 (+COV) Soln.date: 2019-Oct-15_10:52:50   # obs: 2609 (1997-2019)
 
IAU76/J2000 helio. ecliptic osc. elements (au, days, deg., period=Julian yrs):
 
  EPOCH=  2458700.5 ! 2019-Aug-05.00 (TDB)         Residual RMS= .083681
   EC= .08892019463262771  QR= 4.732900752059271   TP= 2459668.8280824195
   OM= 43.53959194136358   W=  27.42986950746389   IN= 8.05897310596958
   A= 5.194825660909952    MA= 279.393486820639    ADIST= 5.656750569760634
   PER= 11.84035           N= .083242976           ANGMOM= .03905199
   DAN= 4.77675            DDN= 5.59536            L= 70.73762189999999
   B= 3.7028151            MOID= 3.74871993        TP= 2022-Mar-30.3280824195
 
Asteroid physical parameters (km, seconds, rotational period in hours):
   GM= n.a.                RAD= 31.9425            ROTPER= 8.711
   H= 9.85                 G= .150                 B-V= n.a.
                           ALBEDO= .052            STYP= n.a.
 
ASTEROID comments: 
1: soln ref.= JPL#59, OCC=0
2: source=ORB
*******************************************************************************
 
 
*******************************************************************************
Ephemeris / MAIL_REQUEST Mon Jun 13 01:10:55 2022 Pasadena, USA  / Horizons    
*******************************************************************************
Target body name: 3548 Eurybates (1973 SO)        {source: JPL#59}
Center body name: Earth (399)                     {source: DE441}
Center-site name: GEOCENTRIC
*******************************************************************************
Start time      : A.D. 2022-Oct-23 00:00:00.0000 UT      
Stop  time      : A.D. 2022-Oct-24 00:00:00.0000 UT      
Step-size       : 60 minutes
*******************************************************************************
Target pole/equ : No model available
Target radii    : 31.9 km                                                      
Center geodetic : 0.00000000,0.00000000,0.0000000 {E-lon(deg),Lat(deg),Alt(km)}
Center cylindric: 0.00000000,0.00000000,0.0000000 {E-lon(deg),Dxy(km),Dz(km)}
Center pole/equ : ITRF93                          {East-longitude positive}
Center radii    : 6378.1 x 6378.1 x 6356.8 km     {Equator, meridian, pole}    
Target primary  : Sun
Vis. interferer : MOON (R_eq= 1737.400) km        {source: DE441}
Rel. light bend : Sun, EARTH                      {source: DE441}
Rel. lght bnd GM: 1.3271E+11, 3.9860E+05 km^3/s^2                              
Small-body perts: Yes                             {source: SB441-N16}
Atmos refraction: NO (AIRLESS)
RA format       : HMS
Time format     : BOTH
EOP file        : eop.220609.p220902                                           
EOP coverage    : DATA-BASED 1962-JAN-20 TO 2022-JUN-09. PREDICTS-> 2022-SEP-01
Units conversion: 1 au= 149597870.700 km, c= 299792.458 km/s, 1 day= 86400.0 s 
Table cut-offs 1: Elevation (-90.0deg=NO ),Airmass (>38.000=NO), Daylight (NO )
Table cut-offs 2: Solar elongation (  0.0,180.0=NO ),Local Hour Angle( 0.0=NO )
Table cut-offs 3: RA/DEC angular rate (     0.0=NO )                           
*******************************************************************************
Initial IAU76/J2000 heliocentric ecliptic osculating elements (au, days, deg.):
  EPOCH=  2458700.5 ! 2019-Aug-05.00 (TDB)         Residual RMS= .083681       
   EC= .08892019463262771  QR= 4.732900752059271   TP= 2459668.8280824195      
   OM= 43.53959194136358   W=  27.42986950746389   IN= 8.05897310596958        
  Equivalent ICRF heliocentric cartesian coordinates (au, au/d):
   X= 4.822990895514605E+00  Y=-1.317851374690991E+00  Z=-1.276129608624007E+00
  VX= 1.959650119599929E-03 VY= 6.492752549918749E-03 VZ= 3.425466196387591E-03
Asteroid physical parameters (km, seconds, rotational period in hours):        
   GM= n.a.                RAD= 31.9425            ROTPER= 8.711               
   H= 9.85                 G= .150                 B-V= n.a.                   
                           ALBEDO= .052            STYP= n.a.                  
***************************************************************************************************************************************************************************************************************************************************************************************************************************************************************************************
 Date__(UT)__HR:MN:SC.fff Date_________JDUT     R.A._________(ICRF)_________DEC  R.A.___(airless-apparent)___DEC  Azimuth__(a-app)__Elevation    APmag   S-brt      Illu%  Ang-diam  ObsSub-LON ObsSub-LAT    hEcl-Lon   hEcl-Lat                r        rdot             delta      deldot  1-way_down_LT     S-O-T /r     S-T-O  Cnst     ObsEcLon    ObsEcLat  N.Pole-RA  N.Pole-DC
***************************************************************************************************************************************************************************************************************************************************************************************************************************************************************************************
$$SOE
 2022-Oct-23 00:00:00.000 2459875.500000000     06 59 11.904194 +29 16 15.77537  07 00 38.050492 +29 14 22.90881           n.a.          n.a.   17.156   8.398   98.98058  0.020093        n.a.       n.a.   91.314778   5.981831   4.758187735350   0.4202595  4.38385449071569 -25.1536466    36.45940604  106.1766 /L   11.5913   Gem  103.2763327   6.4973534       n.a.       n.a.
 2022-Oct-23 01:00:00.000 2459875.541666667     06 59 12.368022 +29 16 19.98792  07 00 38.516038 +29 14 27.10484           n.a.          n.a.   17.155   8.398   98.98102  0.020096        n.a.       n.a.   91.318904   5.982219   4.758197850497   0.4203392  4.38324925071260 -25.1483496    36.45437241  106.2162 /L   11.5888   Gem  103.2779040   6.4986898       n.a.       n.a.
 2022-Oct-23 02:00:00.000 2459875.583333333     06 59 12.830208 +29 16 24.20315  07 00 38.979941 +29 14 31.30357           n.a.          n.a.   17.155   8.397   98.98147  0.020098        n.a.       n.a.   91.323030   5.982607   4.758207967562   0.4204189  4.38264413834859 -25.1430383    36.44933985  106.2558 /L   11.5863   Gem  103.2794693   6.5000264       n.a.       n.a.
 2022-Oct-23 03:00:00.000 2459875.625000000     06 59 13.290751 +29 16 28.42106  07 00 39.442201 +29 14 35.50499           n.a.          n.a.   17.155   8.397   98.98191  0.020101        n.a.       n.a.   91.327155   5.982995   4.758218086544   0.4204986  4.38203915397107 -25.1377125    36.44430835  106.2954 /L   11.5837   Gem  103.2810285   6.5013631       n.a.       n.a.
 2022-Oct-23 04:00:00.000 2459875.666666667     06 59 13.749651 +29 16 32.64164  07 00 39.902819 +29 14 39.70911           n.a.          n.a.   17.154   8.397   98.98235  0.020104        n.a.       n.a.   91.331281   5.983383   4.758228207444   0.4205782  4.38143429792767 -25.1323722    36.43927791  106.3350 /L   11.5812   Gem  103.2825816   6.5027000       n.a.       n.a.
 2022-Oct-23 05:00:00.000 2459875.708333333     06 59 14.206907 +29 16 36.86491  07 00 40.361793 +29 14 43.91592           n.a.          n.a.   17.154   8.397   98.98280  0.020107        n.a.       n.a.   91.335407   5.983771   4.758238330261   0.4206579  4.38082957056628 -25.1270175    36.43424855  106.3746 /L   11.5787   Gem  103.2841287   6.5040370       n.a.       n.a.
 2022-Oct-23 06:00:00.000 2459875.750000000     06 59 14.662519 +29 16 41.09085  07 00 40.819124 +29 14 48.12542           n.a.          n.a.   17.153   8.397   98.98324  0.020110        n.a.       n.a.   91.339532   5.984159   4.758248454996   0.4207376  4.38022497223501 -25.1216483    36.42922026  106.4143 /L   11.5761   Gem  103.2856696   6.5053742       n.a.       n.a.
 2022-Oct-23 07:00:00.000 2459875.791666667     06 59 15.116487 +29 16 45.31947  07 00 41.274811 +29 14 52.33761           n.a.          n.a.   17.153   8.397   98.98369  0.020112        n.a.       n.a.   91.343658   5.984547   4.758258581648   0.4208173  4.37962050328219 -25.1162647    36.42419304  106.4539 /L   11.5736   Gem  103.2872044   6.5067115       n.a.       n.a.
 2022-Oct-23 08:00:00.000 2459875.833333333     06 59 15.568810 +29 16 49.55077  07 00 41.728853 +29 14 56.55250           n.a.          n.a.   17.153   8.397   98.98414  0.020115        n.a.       n.a.   91.347783   5.984935   4.758268710217   0.4208969  4.37901616405641 -25.1108665    36.41916691  106.4935 /L   11.5710   Gem  103.2887332   6.5080489       n.a.       n.a.
 2022-Oct-23 09:00:00.000 2459875.875000000     06 59 16.019487 +29 16 53.78474  07 00 42.181251 +29 15 00.77007           n.a.          n.a.   17.152   8.397   98.98459  0.020118        n.a.       n.a.   91.351909   5.985323   4.758278840703   0.4209766  4.37841195490650 -25.1054539    36.41414185  106.5332 /L   11.5685   Gem  103.2902558   6.5093865       n.a.       n.a.
 2022-Oct-23 10:00:00.000 2459875.916666667     06 59 16.468518 +29 16 58.02139  07 00 42.632003 +29 15 04.99033           n.a.          n.a.   17.152   8.397   98.98504  0.020121        n.a.       n.a.   91.356035   5.985710   4.758288973106   0.4210563  4.37780787618149 -25.1000267    36.40911788  106.5728 /L   11.5659   Gem  103.2917723   6.5107243       n.a.       n.a.
 2022-Oct-23 11:00:00.000 2459875.958333333     06 59 16.915903 +29 17 02.26071  07 00 43.081111 +29 15 09.21328           n.a.          n.a.   17.152   8.397   98.98549  0.020123        n.a.       n.a.   91.360160   5.986098   4.758299107426   0.4211359  4.37720392823066 -25.0945850    36.40409500  106.6125 /L   11.5633   Gem  103.2932828   6.5120621       n.a.       n.a.
 2022-Oct-23 12:00:00.000 2459876.000000000     06 59 17.361640 +29 17 06.50271  07 00 43.528572 +29 15 13.43892           n.a.          n.a.   17.151   8.397   98.98594  0.020126        n.a.       n.a.   91.364286   5.986486   4.758309243664   0.4212156  4.37660011140349 -25.0891288    36.39907321  106.6521 /L   11.5607   Gem  103.2947871   6.5134002       n.a.       n.a.
